HST                     
1 20580U 90037B   26199.30318182  .00003106  00000+0  93086-4 0  9996
2 20580  28.4720 227.8514 0002183 134.1462 225.9314 15.31079190793342
POLAR                   
1 23802U 96013A   26198.07629098  .00000165  00000+0  00000+0 0  9991
2 23802  79.8950 226.6973 6500355 208.0495  91.8485  1.29846054145242
SWAS                    
1 25560U 98071A   26199.15666424  .00001540  00000+0  10169-3 0  9993
2 25560  69.8943 147.6453 0007729 227.3636 132.6878 15.09757718501947
CXO                     
1 25867U 99040B   26201.11356867  .00000551  00000+0  00000+0 0  9997
2 25867  56.6395 115.7467 7780937 310.0076   0.5836  0.37806069 17440
XMM-NEWTON              
1 25989U 99066A   26201.25992622 -.00000007  00000+0  00000+0 0  9997
2 25989  64.3074 282.5600 4664570  64.3171   0.0365  0.50127970 23163
TERRA                   
1 25994U 99068A   26199.24779235  .00000164  00000+0  42418-4 0  9990
2 25994  97.9439 247.5598 0003524 116.8300 317.7210 14.61125040414144
CLUSTER II-FM7 (SAMBA)  
1 26410U 00041A   26201.60132873  .00010308 -30424-5  00000+0 0  9999
2 26410 149.8019  56.9142 9091652 274.4947 359.3583  0.44850489 20452
CLUSTER II-FM8 (TANGO)  
1 26464U 00045B   26197.70211284  .00047405 -54219-4  00000+0 0  9996
2 26464 150.0212  57.4640 9093702 274.8348   1.9953  0.44420127 20448
ODIN                    
1 26702U 01007A   26199.07480575  .00295265  34455-4  93745-3 0  9993
2 26702  97.3694 242.3091 0005160 152.1707 207.9844 15.91163632394280
TIMED                   
1 26998U 01055B   26199.05147250  .00000543  00000+0  52867-4 0  9999
2 26998  74.0667 172.8706 0002297 297.7441  62.3510 14.95347887335432
CORIOLIS                
1 27640U 03001A   26199.27218815  .00000038  00000+0  38333-4 0  9998
2 27640  98.7135 205.6833 0015036 120.9072 239.3585 14.19952372218635
SORCE                   
1 27651U 03004A   26199.02039646  .00001248  00000+0  99766-4 0  9990
2 27651  39.9915  85.7400 0018770 273.4023  86.4624 15.03849806276545
MOST                    
1 27843U 03031D   26199.25620521  .00000006  00000+0  22730-4 0  9994
2 27843  98.7054 206.5494 0010288 156.5908 203.5740 14.21328044195120
SCISAT 1                
1 27858U 03036A   26199.15385424  .00000251  00000+0  36676-4 0  9990
2 27858  73.9301 109.8164 0007220 177.1960 182.9258 14.81480718236037
SWIFT                   
1 28485U 04047A   26198.56074466  .00038109  00000+0  27754-3 0  9994
2 28485  20.5527 310.0785 0002277  47.3664 312.6974 15.71352903191641
HINODE (SOLAR-B)        
1 29479U 06041A   26199.04872166  .00000265  00000+0  53891-4 0  9995
2 29479  98.0548 214.7464 0017254 185.2759 174.8267 14.68660184 59408
SHIJIAN-6 02A (SJ-6 02A)
1 29505U 06046A   26199.28892094  .00000624  00000+0  34847-4 0  9997
2 29505  97.6338 240.5929 0004145  57.7679 302.3956 15.17262216 76986
SHIJIAN-6 02B (SJ-6 02B)
1 29506U 06046B   26199.26979566  .00000291  00000+0  27240-4 0  9995
2 29506  97.7138 228.1358 0013018 325.3898  34.6477 15.01440336 75403
FGRST (GLAST)           
1 33053U 08029A   26198.80550814  .00001834  00000+0  59947-4 0  9993
2 33053  25.5830 351.8602 0007892 331.1761  28.8341 15.24085020   364
SDO                     
1 36395U 10005A   26199.24005113 -.00000094  00000+0  00000+0 0  9997
2 36395  34.7143  85.8693 0001755  43.0517 151.3467  1.00277384 60372
CRYOSAT 2               
1 36508U 10013A   26199.23343310  .00000093  00000+0  22454-4 0  9995
2 36508  92.0357 284.8492 0002425  98.8572 261.2910 14.51899045862585
X-SAT                   
1 37389U 11015C   26199.25621051  .00000275  00000+0  13427-3 0  9990
2 37389  98.3533 174.8034 0012741 251.0475 108.9325 14.25215293792100
GCOM-W1 (SHIZUKU)       
1 38337U 12025A   26198.86664315  .00000194  00000+0  53007-4 0  9991
2 38337  98.2024 138.9584 0001288  78.7766 349.7713 14.57091435753502
NUSTAR                  
1 38358U 12031A   26199.33335648  .00015292  00000+0  88211-3 0  9997
2 38358   6.0258 160.4456 0008870 217.4876 325.9066 15.09051082  1300
NEOSSAT                 
1 39089U 13009D   26199.08054909  .00000041  00000+0  29080-4 0  9991
2 39089  98.4192  18.3807 0011613 149.0411 211.1462 14.35836215701174
BRITE-AUSTRIA           
1 39091U 13009F   26198.78518510  .00000059  00000+0  34436-4 0  9993
2 39091  98.4011  17.4659 0010906 143.4124 216.7810 14.36553072701441
IRIS                    
1 39197U 13033A   26199.14119398  .00000490  00000+0  62352-4 0  9996
2 39197  97.9318  38.3206 0023518 214.9300 145.0373 14.85940228704971
HISAKI (SPRINT-A)       
1 39253U 13049A   26199.28178039  .00000088  00000+0  29182-4 0  9995
2 39253  29.7217  61.9203 0136978 268.8930  89.5946 13.55546891635645
CASSIOPE                
1 39265U 13055A   26199.23109427  .00015803 -53679-6  16895-3 0  9990
2 39265  80.9129  28.9391 0282346 317.5849  40.3860 15.27524092672407
STSAT-3                 
1 39422U 13066G   26199.27341660  .00002010  00000+0  15421-3 0  9990
2 39422  97.6201 168.6604 0008872 293.0064  67.0225 15.02897929688878
